CCSDS_OMM_VERS = 2.0
CREATION_DATE  = 
ORIGINATOR     = 

OBJECT_NAME    = STARLINK-36718
OBJECT_ID      = 2026-025Y
CENTER_NAME    = EARTH
REF_FRAME      = TEME
TIME_SYSTEM    = UTC
MEAN_ELEMENT_THEORY = SGP/SGP4

EPOCH          = 2026-02-24T14:00:04.000032
MEAN_MOTION    = 15.80818555
ECCENTRICITY   = .00012584
INCLINATION    = 97.2706
RA_OF_ASC_NODE = 166.5805
ARG_OF_PERICENTER = 90.7909
MEAN_ANOMALY   = 197.0640

EPHEMERIS_TYPE = 0
CLASSIFICATION_TYPE = U
NORAD_CAT_ID   = 67715
ELEMENT_SET_NO = 999
REV_AT_EPOCH   = 374
BSTAR          = .94240397E-4
MEAN_MOTION_DOT = .17949E-3
MEAN_MOTION_DDOT = 0

CCSDS_OMM_VERS = 2.0
CREATION_DATE  = 
ORIGINATOR     = 

OBJECT_NAME    = STARLINK-36715
OBJECT_ID      = 2026-025Z
CENTER_NAME    = EARTH
REF_FRAME      = TEME
TIME_SYSTEM    = UTC
MEAN_ELEMENT_THEORY = SGP/SGP4

EPOCH          = 2026-02-24T14:00:04.000032
MEAN_MOTION    = 15.80814724
ECCENTRICITY   = .0000873
INCLINATION    = 97.2721
RA_OF_ASC_NODE = 166.5748
ARG_OF_PERICENTER = 82.7231
MEAN_ANOMALY   = 193.4054

EPHEMERIS_TYPE = 0
CLASSIFICATION_TYPE = U
NORAD_CAT_ID   = 67716
ELEMENT_SET_NO = 999
REV_AT_EPOCH   = 380
BSTAR          = -.10015039E-3
MEAN_MOTION_DOT = -.1928E-3
MEAN_MOTION_DDOT = 0

CCSDS_OMM_VERS = 2.0
CREATION_DATE  = 
ORIGINATOR     = 

OBJECT_NAME    = STARLINK-36385
OBJECT_ID      = 2026-025AA
CENTER_NAME    = EARTH
REF_FRAME      = TEME
TIME_SYSTEM    = UTC
MEAN_ELEMENT_THEORY = SGP/SGP4

EPOCH          = 2026-02-24T14:00:04.000032
MEAN_MOTION    = 15.80796866
ECCENTRICITY   = .00011168
INCLINATION    = 97.2735
RA_OF_ASC_NODE = 166.5601
ARG_OF_PERICENTER = 91.9602
MEAN_ANOMALY   = 148.6154

EPHEMERIS_TYPE = 0
CLASSIFICATION_TYPE = U
NORAD_CAT_ID   = 67717
ELEMENT_SET_NO = 999
REV_AT_EPOCH   = 380
BSTAR          = .21820345E-3
MEAN_MOTION_DOT = .41818E-3
MEAN_MOTION_DDOT = 0

CCSDS_OMM_VERS = 2.0
CREATION_DATE  = 
ORIGINATOR     = 

OBJECT_NAME    = CZ-2F DEB
OBJECT_ID      = 2026-024E
CENTER_NAME    = EARTH
REF_FRAME      = TEME
TIME_SYSTEM    = UTC
MEAN_ELEMENT_THEORY = SGP/SGP4

EPOCH          = 2026-02-24T06:52:38.603424
MEAN_MOTION    = 15.19591641
ECCENTRICITY   = .0250781
INCLINATION    = 50.3155
RA_OF_ASC_NODE = 84.2942
ARG_OF_PERICENTER = 227.3002
MEAN_ANOMALY   = 130.6593

EPHEMERIS_TYPE = 0
CLASSIFICATION_TYPE = U
NORAD_CAT_ID   = 67718
ELEMENT_SET_NO = 999
REV_AT_EPOCH   = 259
BSTAR          = .35093E-2
MEAN_MOTION_DOT = .182888E-2
MEAN_MOTION_DDOT = 0

CCSDS_OMM_VERS = 2.0
CREATION_DATE  = 
ORIGINATOR     = 

OBJECT_NAME    = CZ-2F DEB
OBJECT_ID      = 2026-024F
CENTER_NAME    = EARTH
REF_FRAME      = TEME
TIME_SYSTEM    = UTC
MEAN_ELEMENT_THEORY = SGP/SGP4

EPOCH          = 2026-02-24T13:43:14.545632
MEAN_MOTION    = 14.99533718
ECCENTRICITY   = .03255853
INCLINATION    = 49.7913
RA_OF_ASC_NODE = 84.8671
ARG_OF_PERICENTER = 218.8969
MEAN_ANOMALY   = 138.8137

EPHEMERIS_TYPE = 0
CLASSIFICATION_TYPE = U
NORAD_CAT_ID   = 67719
ELEMENT_SET_NO = 999
REV_AT_EPOCH   = 227
BSTAR          = .33127716E-2
MEAN_MOTION_DOT = .132499E-2
MEAN_MOTION_DDOT = 0

CCSDS_OMM_VERS = 2.0
CREATION_DATE  = 
ORIGINATOR     = 

OBJECT_NAME    = CZ-2F DEB
OBJECT_ID      = 2026-024G
CENTER_NAME    = EARTH
REF_FRAME      = TEME
TIME_SYSTEM    = UTC
MEAN_ELEMENT_THEORY = SGP/SGP4

EPOCH          = 2026-02-24T12:51:47.071872
MEAN_MOTION    = 14.96868117
ECCENTRICITY   = .03362134
INCLINATION    = 49.8304
RA_OF_ASC_NODE = 85.3994
ARG_OF_PERICENTER = 215.1369
MEAN_ANOMALY   = 142.6980

EPHEMERIS_TYPE = 0
CLASSIFICATION_TYPE = U
NORAD_CAT_ID   = 67720
ELEMENT_SET_NO = 999
REV_AT_EPOCH   = 258
BSTAR          = .34625708E-2
MEAN_MOTION_DOT = .134844E-2
MEAN_MOTION_DDOT = 0

CCSDS_OMM_VERS = 2.0
CREATION_DATE  = 
ORIGINATOR     = 

OBJECT_NAME    = STARLINK-36772
OBJECT_ID      = 2026-026A
CENTER_NAME    = EARTH
REF_FRAME      = TEME
TIME_SYSTEM    = UTC
MEAN_ELEMENT_THEORY = SGP/SGP4

EPOCH          = 2026-02-11T18:04:34.000320
MEAN_MOTION    = 16.07750770
ECCENTRICITY   = .00034
INCLINATION    = 97.2800
RA_OF_ASC_NODE = 95.5280
ARG_OF_PERICENTER = 259.0800
MEAN_ANOMALY   = 81.2200

EPHEMERIS_TYPE = 0
CLASSIFICATION_TYPE = U
NORAD_CAT_ID   = 67721
ELEMENT_SET_NO = 999
REV_AT_EPOCH   = 1
BSTAR          = 0
MEAN_MOTION_DOT = -.725E-5
MEAN_MOTION_DDOT = .2293429E-5

CCSDS_OMM_VERS = 2.0
CREATION_DATE  = 
ORIGINATOR     = 

OBJECT_NAME    = STARLINK-36796
OBJECT_ID      = 2026-026B
CENTER_NAME    = EARTH
REF_FRAME      = TEME
TIME_SYSTEM    = UTC
MEAN_ELEMENT_THEORY = SGP/SGP4

EPOCH          = 2026-02-24T14:00:04.000032
MEAN_MOTION    = 15.80808090
ECCENTRICITY   = .00010998
INCLINATION    = 97.2773
RA_OF_ASC_NODE = 109.5515
ARG_OF_PERICENTER = 100.7672
MEAN_ANOMALY   = 263.8211

EPHEMERIS_TYPE = 0
CLASSIFICATION_TYPE = U
NORAD_CAT_ID   = 67722
ELEMENT_SET_NO = 999
REV_AT_EPOCH   = 320
BSTAR          = .35906251E-3
MEAN_MOTION_DOT = .69157E-3
MEAN_MOTION_DDOT = 0

CCSDS_OMM_VERS = 2.0
CREATION_DATE  = 
ORIGINATOR     = 

OBJECT_NAME    = STARLINK-36369
OBJECT_ID      = 2026-026C
CENTER_NAME    = EARTH
REF_FRAME      = TEME
TIME_SYSTEM    = UTC
MEAN_ELEMENT_THEORY = SGP/SGP4

EPOCH          = 2026-02-24T14:00:04.000032
MEAN_MOTION    = 15.80751615
ECCENTRICITY   = .00007076
INCLINATION    = 97.2771
RA_OF_ASC_NODE = 109.5545
ARG_OF_PERICENTER = 90.5011
MEAN_ANOMALY   = 279.9473

EPHEMERIS_TYPE = 0
CLASSIFICATION_TYPE = U
NORAD_CAT_ID   = 67723
ELEMENT_SET_NO = 999
REV_AT_EPOCH   = 320
BSTAR          = .88428329E-3
MEAN_MOTION_DOT = .172115E-2
MEAN_MOTION_DDOT = 0

CCSDS_OMM_VERS = 2.0
CREATION_DATE  = 
ORIGINATOR     = 

OBJECT_NAME    = STARLINK-36752
OBJECT_ID      = 2026-026D
CENTER_NAME    = EARTH
REF_FRAME      = TEME
TIME_SYSTEM    = UTC
MEAN_ELEMENT_THEORY = SGP/SGP4

EPOCH          = 2026-02-24T14:00:04.000032
MEAN_MOTION    = 15.80778428
ECCENTRICITY   = .00016469
INCLINATION    = 97.2761
RA_OF_ASC_NODE = 109.5589
ARG_OF_PERICENTER = 84.8030
MEAN_ANOMALY   = 293.2168

EPHEMERIS_TYPE = 0
CLASSIFICATION_TYPE = U
NORAD_CAT_ID   = 67724
ELEMENT_SET_NO = 999
REV_AT_EPOCH   = 320
BSTAR          = .10562407E-2
MEAN_MOTION_DOT = .206691E-2
MEAN_MOTION_DDOT = 0

CCSDS_OMM_VERS = 2.0
CREATION_DATE  = 
ORIGINATOR     = 

OBJECT_NAME    = STARLINK-36754
OBJECT_ID      = 2026-026E
CENTER_NAME    = EARTH
REF_FRAME      = TEME
TIME_SYSTEM    = UTC
MEAN_ELEMENT_THEORY = SGP/SGP4

EPOCH          = 2026-02-24T14:00:04.000032
MEAN_MOTION    = 15.80779269
ECCENTRICITY   = .00012041
INCLINATION    = 97.2753
RA_OF_ASC_NODE = 109.5601
ARG_OF_PERICENTER = 104.3038
MEAN_ANOMALY   = 279.7982

EPHEMERIS_TYPE = 0
CLASSIFICATION_TYPE = U
NORAD_CAT_ID   = 67725
ELEMENT_SET_NO = 999
REV_AT_EPOCH   = 320
BSTAR          = .55242983E-3
MEAN_MOTION_DOT = .106798E-2
MEAN_MOTION_DDOT = 0

CCSDS_OMM_VERS = 2.0
CREATION_DATE  = 
ORIGINATOR     = 

OBJECT_NAME    = STARLINK-36755
OBJECT_ID      = 2026-026F
CENTER_NAME    = EARTH
REF_FRAME      = TEME
TIME_SYSTEM    = UTC
MEAN_ELEMENT_THEORY = SGP/SGP4

EPOCH          = 2026-02-24T14:00:04.000032
MEAN_MOTION    = 15.80783525
ECCENTRICITY   = .00008216
INCLINATION    = 97.2747
RA_OF_ASC_NODE = 109.5628
ARG_OF_PERICENTER = 94.1753
MEAN_ANOMALY   = 297.5860

EPHEMERIS_TYPE = 0
CLASSIFICATION_TYPE = U
NORAD_CAT_ID   = 67726
ELEMENT_SET_NO = 999
REV_AT_EPOCH   = 320
BSTAR          = .57339278E-3
MEAN_MOTION_DOT = .11093E-2
MEAN_MOTION_DDOT = 0

CCSDS_OMM_VERS = 2.0
CREATION_DATE  = 
ORIGINATOR     = 

OBJECT_NAME    = STARLINK-36741
OBJECT_ID      = 2026-026G
CENTER_NAME    = EARTH
REF_FRAME      = TEME
TIME_SYSTEM    = UTC
MEAN_ELEMENT_THEORY = SGP/SGP4

EPOCH          = 2026-02-24T14:00:04.000032
MEAN_MOTION    = 15.80760749
ECCENTRICITY   = .0001336
INCLINATION    = 97.2740
RA_OF_ASC_NODE = 109.5648
ARG_OF_PERICENTER = 96.2354
MEAN_ANOMALY   = 300.4786

EPHEMERIS_TYPE = 0
CLASSIFICATION_TYPE = U
NORAD_CAT_ID   = 67727
ELEMENT_SET_NO = 999
REV_AT_EPOCH   = 320
BSTAR          = .78560328E-3
MEAN_MOTION_DOT = .152613E-2
MEAN_MOTION_DDOT = 0

CCSDS_OMM_VERS = 2.0
CREATION_DATE  = 
ORIGINATOR     = 

OBJECT_NAME    = STARLINK-36757
OBJECT_ID      = 2026-026H
CENTER_NAME    = EARTH
REF_FRAME      = TEME
TIME_SYSTEM    = UTC
MEAN_ELEMENT_THEORY = SGP/SGP4

EPOCH          = 2026-02-24T14:00:04.000032
MEAN_MOTION    = 15.80808052
ECCENTRICITY   = .00013441
INCLINATION    = 97.2736
RA_OF_ASC_NODE = 109.5667
ARG_OF_PERICENTER = 96.5945
MEAN_ANOMALY   = 307.0177

EPHEMERIS_TYPE = 0
CLASSIFICATION_TYPE = U
NORAD_CAT_ID   = 67728
ELEMENT_SET_NO = 999
REV_AT_EPOCH   = 320
BSTAR          = .32288332E-3
MEAN_MOTION_DOT = .62125E-3
MEAN_MOTION_DDOT = 0

CCSDS_OMM_VERS = 2.0
CREATION_DATE  = 
ORIGINATOR     = 

OBJECT_NAME    = STARLINK-36751
OBJECT_ID      = 2026-026J
CENTER_NAME    = EARTH
REF_FRAME      = TEME
TIME_SYSTEM    = UTC
MEAN_ELEMENT_THEORY = SGP/SGP4

EPOCH          = 2026-02-24T14:00:04.000032
MEAN_MOTION    = 15.80801079
ECCENTRICITY   = .00014718
INCLINATION    = 97.2733
RA_OF_ASC_NODE = 109.5728
ARG_OF_PERICENTER = 85.5788
MEAN_ANOMALY   = 332.1254

EPHEMERIS_TYPE = 0
CLASSIFICATION_TYPE = U
NORAD_CAT_ID   = 67729
ELEMENT_SET_NO = 999
REV_AT_EPOCH   = 320
BSTAR          = .37060092E-3
MEAN_MOTION_DOT = .71381E-3
MEAN_MOTION_DDOT = 0

